IRIDIUM 63              
1 25286U 98021B   25272.79963341  .00001096  00000+0  36613-3 0  9990
2 25286  86.4000  38.2162 0001891  89.0087 271.1327 14.36634065438866
IRIDIUM 69              
1 25319U 98026A   25272.83809535  .00001425  00000+0  43682-3 0  9991
2 25319  86.3966  51.1613 0003977  62.8651 297.2954 14.41073690438133
IRIDIUM 71              
1 25320U 98026B   25272.83159603  .00000725  00000+0  21840-3 0  9991
2 25320  86.3976  45.8413 0004183  96.3061 263.8615 14.41241704438665
IRIDIUM 73              
1 25344U 98032C   25272.76020985  .00001327  00000+0  32475-3 0  9991
2 25344  86.4473   2.4083 0002272  75.1516 284.9941 14.51845380445736
IRIDIUM 82              
1 25467U 98051A   25271.90792428  .00060229  00000+0  14705-2 0  9992
2 25467  86.3629  58.5117 0074580 261.4292  97.8505 15.37713783439866
